{
  "type": "FeatureCollection",
  "features": [
    {
      "type": "Feature",
      "properties": {
        "norad_id": 28890,
        "name": "BEIJING 1",
        "group": "dmc",
        "lat": 62.915919381459304,
        "lon": 96.19690618950645,
        "alt_km": 674.596320652563,
        "timestamp": "2025-12-11T05:00:25.977699+00:00",
        "meta_object_name": "BEIJING 1",
        "meta_object_id": "2005-043A",
        "meta_epoch": "2025-12-10T22:09:02.856672",
        "meta_mean_motion": 14.63363206,
        "meta_eccentricity": 0.00151923,
        "meta_inclination": 98.2655,
        "meta_ra_of_asc_node": 112.4255,
        "meta_arg_of_pericenter": 146.5897,
        "meta_mean_anomaly": 213.6266,
        "meta_ephemeris_type": 0,
        "meta_classification_type": "U",
        "meta_norad_cat_id": 28890,
        "meta_element_set_no": 999,
        "meta_rev_at_epoch": 7311,
        "meta_bstar": 0.00013388847,
        "meta_mean_motion_dot": 6.44e-06,
        "meta_mean_motion_ddot": 0,
        "tle_line1": "1 28890U 05043A   25344.92294973  .00000644  00000+0  13389-3 0  9992",
        "tle_line2": "2 28890  98.2655 112.4255 0015192 146.5897 213.6266 14.63363206 73114"
      },
      "geometry": {
        "type": "Point",
        "coordinates": [
          96.19690618950645,
          62.915919381459304
        ]
      }
    },
    {
      "type": "Feature",
      "properties": {
        "norad_id": 33320,
        "name": "HUANJING 1A (HJ-1A)",
        "group": "dmc",
        "lat": -18.567341171922987,
        "lon": -23.83958173037799,
        "alt_km": 616.1642287088707,
        "timestamp": "2025-12-11T05:00:25.977723+00:00",
        "meta_object_name": "HUANJING 1A (HJ-1A)",
        "meta_object_id": "2008-041A",
        "meta_epoch": "2025-12-10T22:36:56.315808",
        "meta_mean_motion": 14.83388119,
        "meta_eccentricity": 0.00203303,
        "meta_inclination": 97.6545,
        "meta_ra_of_asc_node": 333.316,
        "meta_arg_of_pericenter": 40.1729,
        "meta_mean_anomaly": 320.0984,
        "meta_ephemeris_type": 0,
        "meta_classification_type": "U",
        "meta_norad_cat_id": 33320,
        "meta_element_set_no": 999,
        "meta_rev_at_epoch": 93049,
        "meta_bstar": 0.00044796509,
        "meta_mean_motion_dot": 3.637e-05,
        "meta_mean_motion_ddot": 0,
        "tle_line1": "1 33320U 08041A   25344.94231847  .00003637  00000+0  44797-3 0  9992",
        "tle_line2": "2 33320  97.6545 333.3160 0020330  40.1729 320.0984 14.83388119930496"
      },
      "geometry": {
        "type": "Point",
        "coordinates": [
          -23.83958173037799,
          -18.567341171922987
        ]
      }
    },
    {
      "type": "Feature",
      "properties": {
        "norad_id": 33321,
        "name": "HUANJING 1B (HJ-1B)",
        "group": "dmc",
        "lat": -26.045614978858836,
        "lon": 153.51026774776366,
        "alt_km": 641.7479950767656,
        "timestamp": "2025-12-11T05:00:25.977738+00:00",
        "meta_object_name": "HUANJING 1B (HJ-1B)",
        "meta_object_id": "2008-041B",
        "meta_epoch": "2025-12-10T23:13:30.475776",
        "meta_mean_motion": 14.8281293,
        "meta_eccentricity": 0.00382665,
        "meta_inclination": 97.6403,
        "meta_ra_of_asc_node": 337.0415,
        "meta_arg_of_pericenter": 81.2341,
        "meta_mean_anomaly": 279.3204,
        "meta_ephemeris_type": 0,
        "meta_classification_type": "U",
        "meta_norad_cat_id": 33321,
        "meta_element_set_no": 999,
        "meta_rev_at_epoch": 93051,
        "meta_bstar": 0.00020007932,
        "meta_mean_motion_dot": 1.588e-05,
        "meta_mean_motion_ddot": 0,
        "tle_line1": "1 33321U 08041B   25344.96771384  .00001588  00000+0  20008-3 0  9992",
        "tle_line2": "2 33321  97.6403 337.0415 0038266  81.2341 279.3204 14.82812930930513"
      },
      "geometry": {
        "type": "Point",
        "coordinates": [
          153.51026774776366,
          -26.045614978858836
        ]
      }
    },
    {
      "type": "Feature",
      "properties": {
        "norad_id": 33446,
        "name": "YAOGAN-4",
        "group": "dmc",
        "lat": 60.686507336501215,
        "lon": 109.6742739694017,
        "alt_km": 623.2919249632705,
        "timestamp": "2025-12-11T05:00:25.977750+00:00",
        "meta_object_name": "YAOGAN-4",
        "meta_object_id": "2008-061A",
        "meta_epoch": "2025-12-10T18:45:27.285984",
        "meta_mean_motion": 14.82672885,
        "meta_eccentricity": 0.00137394,
        "meta_inclination": 97.9179,
        "meta_ra_of_asc_node": 274.9001,
        "meta_arg_of_pericenter": 330.1294,
        "meta_mean_anomaly": 29.9134,
        "meta_ephemeris_type": 0,
        "meta_classification_type": "U",
        "meta_norad_cat_id": 33446,
        "meta_element_set_no": 999,
        "meta_rev_at_epoch": 91774,
        "meta_bstar": 0.00030466827,
        "meta_mean_motion_dot": 2.407e-05,
        "meta_mean_motion_ddot": 0,
        "tle_line1": "1 33446U 08061A   25344.78156581  .00002407  00000+0  30467-3 0  9999",
        "tle_line2": "2 33446  97.9179 274.9001 0013739 330.1294  29.9134 14.82672885917749"
      },
      "geometry": {
        "type": "Point",
        "coordinates": [
          109.6742739694017,
          60.686507336501215
        ]
      }
    },
    {
      "type": "Feature",
      "properties": {
        "norad_id": 35681,
        "name": "DEIMOS-1",
        "group": "dmc",
        "lat": -68.15082971075775,
        "lon": 165.64338645419684,
        "alt_km": 654.2691029753714,
        "timestamp": "2025-12-11T05:00:25.977760+00:00",
        "meta_object_name": "DEIMOS-1",
        "meta_object_id": "2009-041A",
        "meta_epoch": "2025-12-10T21:10:51.958848",
        "meta_mean_motion": 14.74947467,
        "meta_eccentricity": 0.00027455,
        "meta_inclination": 97.715,
        "meta_ra_of_asc_node": 145.5721,
        "meta_arg_of_pericenter": 82.3795,
        "meta_mean_anomaly": 277.7726,
        "meta_ephemeris_type": 0,
        "meta_classification_type": "U",
        "meta_norad_cat_id": 35681,
        "meta_element_set_no": 999,
        "meta_rev_at_epoch": 87912,
        "meta_bstar": 0.00015678571,
        "meta_mean_motion_dot": 1.006e-05,
        "meta_mean_motion_ddot": 0,
        "tle_line1": "1 35681U 09041A   25344.88254582  .00001006  00000+0  15679-3 0  9994",
        "tle_line2": "2 35681  97.7150 145.5721 0002745  82.3795 277.7726 14.74947467879129"
      },
      "geometry": {
        "type": "Point",
        "coordinates": [
          165.64338645419684,
          -68.15082971075775
        ]
      }
    },
    {
      "type": "Feature",
      "properties": {
        "norad_id": 35683,
        "name": "UK-DMC 2",
        "group": "dmc",
        "lat": -57.28499631100298,
        "lon": 132.567098237549,
        "alt_km": 651.1779372984656,
        "timestamp": "2025-12-11T05:00:25.977771+00:00",
        "meta_object_name": "UK-DMC 2",
        "meta_object_id": "2009-041C",
        "meta_epoch": "2025-12-10T22:45:38.214144",
        "meta_mean_motion": 14.75615969,
        "meta_eccentricity": 0.00014141,
        "meta_inclination": 97.8563,
        "meta_ra_of_asc_node": 119.9015,
        "meta_arg_of_pericenter": 96.044,
        "meta_mean_anomaly": 264.0931,
        "meta_ephemeris_type": 0,
        "meta_classification_type": "U",
        "meta_norad_cat_id": 35683,
        "meta_element_set_no": 999,
        "meta_rev_at_epoch": 87880,
        "meta_bstar": 0.00027596305,
        "meta_mean_motion_dot": 1.834e-05,
        "meta_mean_motion_ddot": 0,
        "tle_line1": "1 35683U 09041C   25344.94835896  .00001834  00000+0  27596-3 0  9996",
        "tle_line2": "2 35683  97.8563 119.9015 0001414  96.0440 264.0931 14.75615969878803"
      },
      "geometry": {
        "type": "Point",
        "coordinates": [
          132.567098237549,
          -57.28499631100298
        ]
      }
    },
    {
      "type": "Feature",
      "properties": {
        "norad_id": 40715,
        "name": "DMC3-FM1",
        "group": "dmc",
        "lat": -62.19315034785074,
        "lon": -132.74042651792848,
        "alt_km": 616.5407187102146,
        "timestamp": "2025-12-11T05:00:25.977782+00:00",
        "meta_object_name": "DMC3-FM1",
        "meta_object_id": "2015-032A",
        "meta_epoch": "2025-12-10T22:49:27.448896",
        "meta_mean_motion": 14.8543694,
        "meta_eccentricity": 0.00048089,
        "meta_inclination": 97.6689,
        "meta_ra_of_asc_node": 212.2088,
        "meta_arg_of_pericenter": 329.211,
        "meta_mean_anomaly": 30.8823,
        "meta_ephemeris_type": 0,
        "meta_classification_type": "U",
        "meta_norad_cat_id": 40715,
        "meta_element_set_no": 999,
        "meta_rev_at_epoch": 56196,
        "meta_bstar": 0.00017313739,
        "meta_mean_motion_dot": 1.441e-05,
        "meta_mean_motion_ddot": 0,
        "tle_line1": "1 40715U 15032A   25344.95101214  .00001441  00000+0  17314-3 0  9997",
        "tle_line2": "2 40715  97.6689 212.2088 0004808 329.2110  30.8823 14.85436940561960"
      },
      "geometry": {
        "type": "Point",
        "coordinates": [
          -132.74042651792848,
          -62.19315034785074
        ]
      }
    },
    {
      "type": "Feature",
      "properties": {
        "norad_id": 40716,
        "name": "DMC3-FM2",
        "group": "dmc",
        "lat": 3.225268983471779,
        "lon": 34.33493411822232,
        "alt_km": 618.3405585567161,
        "timestamp": "2025-12-11T05:00:25.977793+00:00",
        "meta_object_name": "DMC3-FM2",
        "meta_object_id": "2015-032B",
        "meta_epoch": "2025-12-10T21:44:51.360000",
        "meta_mean_motion": 14.8543514,
        "meta_eccentricity": 0.00055226,
        "meta_inclination": 97.6745,
        "meta_ra_of_asc_node": 213.608,
        "meta_arg_of_pericenter": 333.2771,
        "meta_mean_anomaly": 26.8159,
        "meta_ephemeris_type": 0,
        "meta_classification_type": "U",
        "meta_norad_cat_id": 40716,
        "meta_element_set_no": 999,
        "meta_rev_at_epoch": 56195,
        "meta_bstar": 0.00010944644,
        "meta_mean_motion_dot": 8.92e-06,
        "meta_mean_motion_ddot": 0,
        "tle_line1": "1 40716U 15032B   25344.90615000  .00000892  00000+0  10945-3 0  9998",
        "tle_line2": "2 40716  97.6745 213.6080 0005522 333.2771  26.8159 14.85435140561950"
      },
      "geometry": {
        "type": "Point",
        "coordinates": [
          34.33493411822232,
          3.225268983471779
        ]
      }
    },
    {
      "type": "Feature",
      "properties": {
        "norad_id": 40717,
        "name": "DMC3-FM3",
        "group": "dmc",
        "lat": 60.2310311960928,
        "lon": -158.11441871245324,
        "alt_km": 606.2461428753095,
        "timestamp": "2025-12-11T05:00:25.977803+00:00",
        "meta_object_name": "DMC3-FM3",
        "meta_object_id": "2015-032C",
        "meta_epoch": "2025-12-10T22:15:58.570272",
        "meta_mean_motion": 14.85425365,
        "meta_eccentricity": 0.00048117,
        "meta_inclination": 97.6801,
        "meta_ra_of_asc_node": 215.2605,
        "meta_arg_of_pericenter": 335.075,
        "meta_mean_anomaly": 25.0232,
        "meta_ephemeris_type": 0,
        "meta_classification_type": "U",
        "meta_norad_cat_id": 40717,
        "meta_element_set_no": 999,
        "meta_rev_at_epoch": 56196,
        "meta_bstar": 0.00012742931,
        "meta_mean_motion_dot": 1.046e-05,
        "meta_mean_motion_ddot": 0,
        "tle_line1": "1 40717U 15032C   25344.92776123  .00001046  00000+0  12743-3 0  9995",
        "tle_line2": "2 40717  97.6801 215.2605 0004811 335.0750  25.0232 14.85425365561964"
      },
      "geometry": {
        "type": "Point",
        "coordinates": [
          -158.11441871245324,
          60.2310311960928
        ]
      }
    }
  ]
}